<?xml version="1.0"?><gpx version="1.1" creator="Signer CPU fixture" xmlns="http://www.topografix.com/GPX/1/1"><trk><name>Artificial route</name><trkseg><trkpt lat="53.0000000" lon="27.0000000"><ele>200</ele><time>2026-01-01T00:00:00Z</time></trkpt><trkpt lat="53.0001000" lon="27.0000000"><ele>200</ele><time>2026-01-01T00:00:01Z</time></trkpt><trkpt lat="53.0002000" lon="27.0000000"><ele>200</ele><time>2026-01-01T00:00:02Z</time></trkpt><trkpt lat="53.0003000" lon="27.0000000"><ele>200</ele><time>2026-01-01T00:00:03Z</time></trkpt><trkpt lat="53.0004000" lon="27.0000000"><ele>200</ele><time>2026-01-01T00:00:04Z</time></trkpt><trkpt lat="53.0005000" lon="27.0000000"><ele>200</ele><time>2026-01-01T00:00:05Z</time></trkpt><trkpt lat="53.0006000" lon="27.0000000"><ele>200</ele><time>2026-01-01T00:00:06Z</time></trkpt></trkseg></trk></gpx>